NOAA 1                  
1 04793U 70106A   24199.73751094 -.00000027  00000+0  99730-4 0  9999
2 04793 101.4441 250.8350 0031033 277.1309 193.7292 12.54029719453018
NOAA 2 (ITOS-D)         
1 06235U 72082A   24199.97620469 -.00000013  00000+0  21036-3 0  9992
2 06235 102.0156 199.3030 0004483  64.8506 351.2394 12.53182632367361
NOAA 3                  
1 06920U 73086A   24199.93016101 -.00000014  00000+0  24063-3 0  9990
2 06920 102.2763 196.1872 0006394 333.3200  80.6064 12.40368683295203
NOAA 4                  
1 07529U 74089A   24199.95288299 -.00000020  00000+0  16384-3 0  9995
2 07529 101.9880 194.4979 0009431  89.3586 326.6863 12.53181636271933
NOAA 5                  
1 09057U 76077A   24199.90774542 -.00000003  00000+0  32550-3 0  9992
2 09057 102.2085 173.2825 0009489 176.7393 239.4978 12.37802487167957
TIROS N                 
1 11060U 78096A   24200.37823886  .00000497  00000+0  25887-3 0  9993
2 11060  98.5303 239.6045 0011675 104.7714 255.4756 14.18852251579878
NOAA 6                  
1 11416U 79057A   24199.94145692  .00000856  00000+0  31876-3 0  9992
2 11416  98.6276 221.1264 0010404 163.1654 196.9878 14.34576655350660
NOAA 7                  
1 12553U 81059A   24200.46113144  .00000201  00000+0  12086-3 0  9993
2 12553  98.8918 259.8115 0012509 104.5852 255.6711 14.17544406225961
NOAA 8                  
1 13923U 83022A   24199.94620186  .00000464  00000+0  19985-3 0  9992
2 13923  98.7303 199.9651 0015640 139.9480 220.2858 14.29278280151164
NOAA 9                  
1 15427U 84123A   24199.96632372  .00000406  00000+0  22656-3 0  9993
2 15427  99.1183 198.1583 0014941 165.4736 248.8946 14.16622014 44408
NOAA 10                 
1 16969U 86073A   24200.22270291  .00000452  00000+0  19732-3 0  9993
2 16969  98.6420 185.8659 0011055 238.7852 131.6544 14.28651026969846
NOAA 11                 
1 19531U 88089A   24200.52976159  .00000217  00000+0  13204-3 0  9996
2 19531  98.5198 161.7162 0011775 140.0072 220.1972 14.15552942848876
NOAA 12                 
1 21263U 91032A   24200.21234641  .00000318  00000+0  15006-3 0  9996
2 21263  98.5587 190.6298 0012502 271.5929  88.3820 14.26338252725568
NOAA 13                 
1 22739U 93050A   24200.50941742  .00000380  00000+0  22511-3 0  9994
2 22739  98.6074 156.8265 0008955 330.7467  29.3204 14.13240742594915
NOAA 14                 
1 23455U 94089A   24199.93380320  .00000225  00000+0  13895-3 0  9999
2 23455  98.4329 194.2361 0008396 297.8695  62.1628 14.14410680524346
NOAA 15                 
1 25338U 98030A   24200.51721951  .00000563  00000+0  25101-3 0  9995
2 25338  98.5673 226.9882 0009404 228.5099 131.5275 14.26631605361907
NOAA 16                 
1 26536U 00055A   24199.94387959  .00000265  00000+0  16218-3 0  9994
2 26536  98.5295 238.1331 0011187 143.0226 217.1720 14.13601685524926
NOAA 17                 
1 27453U 02032A   24199.95022519  .00000529  00000+0  24230-3 0  9995
2 27453  98.7641 150.5271 0010920 215.2069 144.8389 14.25617047147338
NOAA 18                 
1 28654U 05018A   24200.50105368  .00000474  00000+0  27670-3 0  9994
2 28654  98.8739 277.2059 0013623 338.6232  21.4370 14.13256289987681
NOAA 19                 
1 33591U 09005A   24200.45692222  .00000461  00000+0  27136-3 0  9997
2 33591  99.0454 256.5845 0013550 200.0079 160.0563 14.13050840796044
SUOMI NPP               
1 37849U 11061A   24200.54936819  .00000237  00000+0  13314-3 0  9999
2 37849  98.7222 138.0591 0001473 120.7861 239.3461 14.19531265659319
NOAA 20 (JPSS-1)        
1 43013U 17073A   24200.14356860  .00000238  00000+0  13368-3 0  9996
2 43013  98.7065 137.5473 0002151 111.0159 249.1247 14.19544726345290
NOAA 21 (JPSS-2)        
1 54234U 22150A   24200.53168610  .00000267  00000+0  14750-3 0  9990
2 54234  98.7519 138.0590 0001884  72.2979 287.8403 14.19540381 87421
